*******************************************************************************
Ephemeris / WWW_USER Mon Mar 10 07:13:35 2025 Pasadena, USA      / Horizons    
*******************************************************************************
Target body name: (2018 OG)                       {source: JPL#12}
Center body name: Earth (399)                     {source: DE441}
Center-site name: Mauna Kea
*******************************************************************************
Start time      : A.D. 2018-Oct-27 04:00:00.0000 UT      
Stop  time      : A.D. 2018-Oct-27 16:11:00.0000 UT      
Step-size       : 1 minutes
*******************************************************************************
Target pole/equ : undefined
Target radii    : undefined                                                    
Center geodetic : 204.5278, 19.8260847, 4.21024   {E-lon(deg),Lat(deg),Alt(km)}
Center cylindric: 204.5278, 6006.35451, 2151.0229 {E-lon(deg),Dxy(km),Dz(km)}
Center pole/equ : ITRF93                          {East-longitude positive}
Center radii    : 6378.137, 6378.137, 6356.752 km {Equator_a, b, pole_c}       
Target primary  : Sun
Vis. interferer : MOON (R_eq= 1737.400) km        {source: DE441}
Rel. light bend : Sun                             {source: DE441}
Rel. lght bnd GM: 1.3271E+11 km^3/s^2                                          
Small-body perts: Yes                             {source: SB441-N16}
Atmos refraction: NO (AIRLESS)
RA format       : HMS
Time format     : CAL 
Calendar mode   : Mixed Julian/Gregorian
RTS-only print  : NO       
EOP file        : eop.250307.p250603                                           
EOP coverage    : DATA-BASED 1962-JAN-20 TO 2025-MAR-07. PREDICTS-> 2025-JUN-02
Units conversion: 1 au= 149597870.700 km, c= 299792.458 km/s, 1 day= 86400.0 s 
Table cut-offs 1: Elevation (-90.0deg=NO ),Airmass (>38.000=NO), Daylight (YES)
Table cut-offs 2: Solar elongation (  0.0,180.0=NO ),Local Hour Angle( 0.0=NO )
Table cut-offs 3: RA/DEC angular rate (     0.0=NO )                           
*******************************************************************************
Initial IAU76/J2000 heliocentric ecliptic osculating elements (au, days, deg.):
  EPOCH=  2458389.5 ! 2018-Sep-28.00 (TDB)         Residual RMS= .17662        
   EC= .5817218672922059   QR= .9873203561553971   TP= 2458366.942240702       
   OM= 131.0345430575832   W=  220.7633135105564   IN= 9.123860581277821       
  Equivalent ICRF heliocentric cartesian coordinates (au, au/d):
   X= 9.625437195102586E-01  Y= 3.686106454146055E-01  Z=-5.877845729655690E-03
  VX=-3.555418036941177E-03 VY= 1.979451357965206E-02 VZ= 6.659913004156397E-03
Asteroid physical parameters (km, seconds, rotational period in hours):        
   GM= n.a.                RAD= n.a.               ROTPER= n.a.                
   H= 23.6                 G= .150                 B-V= n.a.                   
                           ALBEDO= n.a.            STYP= n.a.                  
*******************************************************************************
 Date__(UT)__HR:MN     R.A._________(ICRF)_________DEC
******************************************************
$$SOE
 2018-Oct-27 04:00 C   06 37 15.193303 -05 03 55.61717
 2018-Oct-27 04:01 C   06 37 15.178267 -05 03 55.38162
 2018-Oct-27 04:02 C   06 37 15.163220 -05 03 55.14609
 2018-Oct-27 04:03 C   06 37 15.148162 -05 03 54.91059
 2018-Oct-27 04:04 C   06 37 15.133092 -05 03 54.67512
 2018-Oct-27 04:05 C   06 37 15.118010 -05 03 54.43968
 2018-Oct-27 04:06 C   06 37 15.102917 -05 03 54.20426
 2018-Oct-27 04:07 C   06 37 15.087812 -05 03 53.96887
 2018-Oct-27 04:08 C   06 37 15.072695 -05 03 53.73351
 2018-Oct-27 04:09 C   06 37 15.057567 -05 03 53.49818
 2018-Oct-27 04:10 C   06 37 15.042426 -05 03 53.26287
 2018-Oct-27 04:11 C   06 37 15.027272 -05 03 53.02759
 2018-Oct-27 04:12 C   06 37 15.012107 -05 03 52.79234
 2018-Oct-27 04:13 C   06 37 14.996929 -05 03 52.55712
 2018-Oct-27 04:14 N   06 37 14.981739 -05 03 52.32192
 2018-Oct-27 04:15 N   06 37 14.966536 -05 03 52.08675
 2018-Oct-27 04:16 N   06 37 14.951320 -05 03 51.85161
 2018-Oct-27 04:17 N   06 37 14.936091 -05 03 51.61649
 2018-Oct-27 04:18 N   06 37 14.920849 -05 03 51.38140
 2018-Oct-27 04:19 N   06 37 14.905595 -05 03 51.14633
 2018-Oct-27 04:20 N   06 37 14.890327 -05 03 50.91130
 2018-Oct-27 04:21 N   06 37 14.875045 -05 03 50.67629
 2018-Oct-27 04:22 N   06 37 14.859751 -05 03 50.44130
 2018-Oct-27 04:23 N   06 37 14.844443 -05 03 50.20635
 2018-Oct-27 04:24 N   06 37 14.829121 -05 03 49.97142
 2018-Oct-27 04:25 N   06 37 14.813786 -05 03 49.73651
 2018-Oct-27 04:26 N   06 37 14.798436 -05 03 49.50163
 2018-Oct-27 04:27 N   06 37 14.783073 -05 03 49.26678
 2018-Oct-27 04:28 N   06 37 14.767696 -05 03 49.03195
 2018-Oct-27 04:29 N   06 37 14.752305 -05 03 48.79715
 2018-Oct-27 04:30 N   06 37 14.736899 -05 03 48.56238
 2018-Oct-27 04:31 N   06 37 14.721479 -05 03 48.32763
 2018-Oct-27 04:32 N   06 37 14.706045 -05 03 48.09291
 2018-Oct-27 04:33 N   06 37 14.690596 -05 03 47.85821
 2018-Oct-27 04:34 N   06 37 14.675133 -05 03 47.62354
 2018-Oct-27 04:35 N   06 37 14.659655 -05 03 47.38890
 2018-Oct-27 04:36 N   06 37 14.644161 -05 03 47.15428
 2018-Oct-27 04:37 N   06 37 14.628653 -05 03 46.91968
 2018-Oct-27 04:38 N   06 37 14.613130 -05 03 46.68512
 2018-Oct-27 04:39 N   06 37 14.597592 -05 03 46.45057
 2018-Oct-27 04:40 A   06 37 14.582039 -05 03 46.21605
 2018-Oct-27 04:41 A   06 37 14.566470 -05 03 45.98156
 2018-Oct-27 04:42 A   06 37 14.550885 -05 03 45.74709
 2018-Oct-27 04:43 A   06 37 14.535286 -05 03 45.51265
 2018-Oct-27 04:44 A   06 37 14.519670 -05 03 45.27823
 2018-Oct-27 04:45 A   06 37 14.504039 -05 03 45.04384
 2018-Oct-27 04:46 A   06 37 14.488392 -05 03 44.80947
 2018-Oct-27 04:47 A   06 37 14.472728 -05 03 44.57513
 2018-Oct-27 04:48 A   06 37 14.457049 -05 03 44.34081
 2018-Oct-27 04:49 A   06 37 14.441354 -05 03 44.10651
 2018-Oct-27 04:50 A   06 37 14.425642 -05 03 43.87224
 2018-Oct-27 04:51 A   06 37 14.409914 -05 03 43.63800
 2018-Oct-27 04:52 A   06 37 14.394170 -05 03 43.40378
 2018-Oct-27 04:53 A   06 37 14.378409 -05 03 43.16958
 2018-Oct-27 04:54 A   06 37 14.362631 -05 03 42.93541
 2018-Oct-27 04:55 A   06 37 14.346837 -05 03 42.70126
 2018-Oct-27 04:56 A   06 37 14.331026 -05 03 42.46713
 2018-Oct-27 04:57 A   06 37 14.315198 -05 03 42.23303
 2018-Oct-27 04:58 A   06 37 14.299353 -05 03 41.99895
 2018-Oct-27 04:59 A   06 37 14.283490 -05 03 41.76490
 2018-Oct-27 05:00 A   06 37 14.267611 -05 03 41.53087
 2018-Oct-27 05:01 A   06 37 14.251714 -05 03 41.29686
 2018-Oct-27 05:02 A   06 37 14.235800 -05 03 41.06288
 2018-Oct-27 05:03 A   06 37 14.219868 -05 03 40.82892
 2018-Oct-27 05:04 A   06 37 14.203918 -05 03 40.59498
 2018-Oct-27 05:05     06 37 14.187951 -05 03 40.36107
 2018-Oct-27 05:06     06 37 14.171966 -05 03 40.12718
 2018-Oct-27 05:07     06 37 14.155963 -05 03 39.89331
 2018-Oct-27 05:08     06 37 14.139943 -05 03 39.65946
 2018-Oct-27 05:09     06 37 14.123904 -05 03 39.42564
 2018-Oct-27 05:10     06 37 14.107847 -05 03 39.19184
 2018-Oct-27 05:11     06 37 14.091771 -05 03 38.95806
 2018-Oct-27 05:12     06 37 14.075678 -05 03 38.72431
 2018-Oct-27 05:13     06 37 14.059566 -05 03 38.49058
 2018-Oct-27 05:14     06 37 14.043435 -05 03 38.25687
 2018-Oct-27 05:15     06 37 14.027286 -05 03 38.02318
 2018-Oct-27 05:16     06 37 14.011118 -05 03 37.78951
 2018-Oct-27 05:17     06 37 13.994931 -05 03 37.55587
 2018-Oct-27 05:18     06 37 13.978725 -05 03 37.32225
 2018-Oct-27 05:19     06 37 13.962501 -05 03 37.08865
 2018-Oct-27 05:20     06 37 13.946257 -05 03 36.85507
 2018-Oct-27 05:21     06 37 13.929994 -05 03 36.62151
 2018-Oct-27 05:22     06 37 13.913712 -05 03 36.38798
 2018-Oct-27 05:23     06 37 13.897410 -05 03 36.15446
 2018-Oct-27 05:24     06 37 13.881089 -05 03 35.92097
 2018-Oct-27 05:25     06 37 13.864748 -05 03 35.68750
 2018-Oct-27 05:26     06 37 13.848388 -05 03 35.45405
 2018-Oct-27 05:27     06 37 13.832008 -05 03 35.22062
 2018-Oct-27 05:28     06 37 13.815609 -05 03 34.98721
 2018-Oct-27 05:29     06 37 13.799189 -05 03 34.75382
 2018-Oct-27 05:30     06 37 13.782750 -05 03 34.52046
 2018-Oct-27 05:31     06 37 13.766290 -05 03 34.28711
 2018-Oct-27 05:32     06 37 13.749811 -05 03 34.05378
 2018-Oct-27 05:33     06 37 13.733311 -05 03 33.82048
 2018-Oct-27 05:34     06 37 13.716791 -05 03 33.58719
 2018-Oct-27 05:35     06 37 13.700250 -05 03 33.35393
 2018-Oct-27 05:36     06 37 13.683689 -05 03 33.12068
 2018-Oct-27 05:37     06 37 13.667107 -05 03 32.88746
 2018-Oct-27 05:38     06 37 13.650505 -05 03 32.65425
 2018-Oct-27 05:39     06 37 13.633882 -05 03 32.42107
 2018-Oct-27 05:40     06 37 13.617238 -05 03 32.18790
 2018-Oct-27 05:41     06 37 13.600574 -05 03 31.95475
 2018-Oct-27 05:42     06 37 13.583888 -05 03 31.72163
 2018-Oct-27 05:43     06 37 13.567182 -05 03 31.48852
 2018-Oct-27 05:44  m  06 37 13.550454 -05 03 31.25543
 2018-Oct-27 05:45  m  06 37 13.533705 -05 03 31.02236
 2018-Oct-27 05:46  m  06 37 13.516935 -05 03 30.78931
 2018-Oct-27 05:47  m  06 37 13.500143 -05 03 30.55628
 2018-Oct-27 05:48  m  06 37 13.483330 -05 03 30.32326
 2018-Oct-27 05:49  m  06 37 13.466495 -05 03 30.09027
 2018-Oct-27 05:50  m  06 37 13.449639 -05 03 29.85729
 2018-Oct-27 05:51  m  06 37 13.432761 -05 03 29.62433
 2018-Oct-27 05:52  m  06 37 13.415861 -05 03 29.39139
 2018-Oct-27 05:53  m  06 37 13.398940 -05 03 29.15847
 2018-Oct-27 05:54  m  06 37 13.381997 -05 03 28.92557
 2018-Oct-27 05:55  m  06 37 13.365031 -05 03 28.69268
 2018-Oct-27 05:56  m  06 37 13.348044 -05 03 28.45982
 2018-Oct-27 05:57  m  06 37 13.331034 -05 03 28.22697
 2018-Oct-27 05:58  m  06 37 13.314002 -05 03 27.99413
 2018-Oct-27 05:59  m  06 37 13.296948 -05 03 27.76132
 2018-Oct-27 06:00  m  06 37 13.279871 -05 03 27.52852
 2018-Oct-27 06:01  m  06 37 13.262772 -05 03 27.29574
 2018-Oct-27 06:02  m  06 37 13.245651 -05 03 27.06298
